sat21277
1 21277U 75052N   20046.76386288 -.00000061  00000-0 -48297-4 0  9991
2 21277  99.7940 324.5415 0132963 262.5381 118.9904 13.18717787385226
